{
  "type": "FeatureCollection",
  "features": [
    {
      "type": "Feature",
      "properties": {
        "norad_id": 37836,
        "name": "EUTELSAT 16A",
        "group": "eutelsat",
        "lat": 0.06178007132580034,
        "lon": 42.46984926342393,
        "alt_km": 35806.24121454401,
        "timestamp": "2025-12-07T20:38:13.748787+00:00",
        "meta_object_name": "EUTELSAT 16A",
        "meta_object_id": "2011-057A",
        "meta_epoch": "2025-12-07T06:51:46.383264",
        "meta_mean_motion": 1.00270147,
        "meta_eccentricity": 0.00059003,
        "meta_inclination": 0.0581,
        "meta_ra_of_asc_node": 356.5753,
        "meta_arg_of_pericenter": 263.6262,
        "meta_mean_anomaly": 295.057,
        "meta_ephemeris_type": 0,
        "meta_classification_type": "U",
        "meta_norad_cat_id": 37836,
        "meta_element_set_no": 999,
        "meta_rev_at_epoch": 540,
        "meta_bstar": 0,
        "meta_mean_motion_dot": 1.08e-06,
        "meta_mean_motion_ddot": 0,
        "tle_line1": "1 37836U 11057A   25341.28595351  .00000108  00000+0  00000+0 0  9991",
        "tle_line2": "2 37836   0.0581 356.5753 0005900 263.6262 295.0570  1.00270147  5407"
      },
      "geometry": {
        "type": "Point",
        "coordinates": [
          42.46984926342393,
          0.06178007132580034
        ]
      }
    },
    {
      "type": "Feature",
      "properties": {
        "norad_id": 38992,
        "name": "EUTELSAT 21B",
        "group": "eutelsat",
        "lat": 0.07523486552816179,
        "lon": 48.04678811740039,
        "alt_km": 35797.42504940868,
        "timestamp": "2025-12-07T20:38:13.748799+00:00",
        "meta_object_name": "EUTELSAT 21B",
        "meta_object_id": "2012-062B",
        "meta_epoch": "2025-12-07T05:10:33.576960",
        "meta_mean_motion": 1.00270041,
        "meta_eccentricity": 0.0003215,
        "meta_inclination": 0.0665,
        "meta_ra_of_asc_node": 353.9118,
        "meta_arg_of_pericenter": 270.7349,
        "meta_mean_anomaly": 270.8362,
        "meta_ephemeris_type": 0,
        "meta_classification_type": "U",
        "meta_norad_cat_id": 38992,
        "meta_element_set_no": 999,
        "meta_rev_at_epoch": 4790,
        "meta_bstar": 0,
        "meta_mean_motion_dot": 1.35e-06,
        "meta_mean_motion_ddot": 0,
        "tle_line1": "1 38992U 12062B   25341.21566640  .00000135  00000+0  00000+0 0  9994",
        "tle_line2": "2 38992   0.0665 353.9118 0003215 270.7349 270.8362  1.00270041 47906"
      },
      "geometry": {
        "type": "Point",
        "coordinates": [
          48.04678811740039,
          0.07523486552816179
        ]
      }
    },
    {
      "type": "Feature",
      "properties": {
        "norad_id": 39020,
        "name": "EUTELSAT 70B",
        "group": "eutelsat",
        "lat": 0.0852906962341807,
        "lon": 96.91105869203902,
        "alt_km": 35801.42235077121,
        "timestamp": "2025-12-07T20:38:13.748810+00:00",
        "meta_object_name": "EUTELSAT 70B",
        "meta_object_id": "2012-069A",
        "meta_epoch": "2025-12-07T02:03:38.498400",
        "meta_mean_motion": 1.00271953,
        "meta_eccentricity": 0.00043004,
        "meta_inclination": 0.0644,
        "meta_ra_of_asc_node": 10.1559,
        "meta_arg_of_pericenter": 234.4627,
        "meta_mean_anomaly": 292.9149,
        "meta_ephemeris_type": 0,
        "meta_classification_type": "U",
        "meta_norad_cat_id": 39020,
        "meta_element_set_no": 999,
        "meta_rev_at_epoch": 4758,
        "meta_bstar": 0,
        "meta_mean_motion_dot": -3.9e-07,
        "meta_mean_motion_ddot": 0,
        "tle_line1": "1 39020U 12069A   25341.08586225 -.00000039  00000+0  00000+0 0  9994",
        "tle_line2": "2 39020   0.0644  10.1559 0004300 234.4627 292.9149  1.00271953 47584"
      },
      "geometry": {
        "type": "Point",
        "coordinates": [
          96.91105869203902,
          0.0852906962341807
        ]
      }
    },
    {
      "type": "Feature",
      "properties": {
        "norad_id": 39122,
        "name": "EUTELSAT 117 WEST A",
        "group": "eutelsat",
        "lat": -0.03377074421223561,
        "lon": -90.36429503989397,
        "alt_km": 35773.50921580478,
        "timestamp": "2025-12-07T20:38:13.748822+00:00",
        "meta_object_name": "EUTELSAT 117 WEST A",
        "meta_object_id": "2013-012A",
        "meta_epoch": "2025-12-07T07:10:41.282688",
        "meta_mean_motion": 1.00270117,
        "meta_eccentricity": 0.00031502,
        "meta_inclination": 0.0139,
        "meta_ra_of_asc_node": 332.4793,
        "meta_arg_of_pericenter": 284.5051,
        "meta_mean_anomaly": 170.2153,
        "meta_ephemeris_type": 0,
        "meta_classification_type": "U",
        "meta_norad_cat_id": 39122,
        "meta_element_set_no": 999,
        "meta_rev_at_epoch": 4650,
        "meta_bstar": 0,
        "meta_mean_motion_dot": -8e-08,
        "meta_mean_motion_ddot": 0,
        "tle_line1": "1 39122U 13012A   25341.29908892 -.00000008  00000+0  00000+0 0  9993",
        "tle_line2": "2 39122   0.0139 332.4793 0003150 284.5051 170.2153  1.00270117 46500"
      },
      "geometry": {
        "type": "Point",
        "coordinates": [
          -90.36429503989397,
          -0.03377074421223561
        ]
      }
    },
    {
      "type": "Feature",
      "properties": {
        "norad_id": 39163,
        "name": "EUTELSAT 7B",
        "group": "eutelsat",
        "lat": 0.04527347691872445,
        "lon": 33.46327193240635,
        "alt_km": 35783.36818153805,
        "timestamp": "2025-12-07T20:38:13.748835+00:00",
        "meta_object_name": "EUTELSAT 7B",
        "meta_object_id": "2013-022A",
        "meta_epoch": "2025-12-07T06:49:09.134400",
        "meta_mean_motion": 1.00270747,
        "meta_eccentricity": 0.00044819,
        "meta_inclination": 0.0694,
        "meta_ra_of_asc_node": 9.5468,
        "meta_arg_of_pericenter": 303.1607,
        "meta_mean_anomaly": 232.877,
        "meta_ephemeris_type": 0,
        "meta_classification_type": "U",
        "meta_norad_cat_id": 39163,
        "meta_element_set_no": 999,
        "meta_rev_at_epoch": 4603,
        "meta_bstar": 0,
        "meta_mean_motion_dot": 5.2e-07,
        "meta_mean_motion_ddot": 0,
        "tle_line1": "1 39163U 13022A   25341.28413350  .00000052  00000+0  00000+0 0  9996",
        "tle_line2": "2 39163   0.0694   9.5468 0004481 303.1607 232.8770  1.00270747 46032"
      },
      "geometry": {
        "type": "Point",
        "coordinates": [
          33.46327193240635,
          0.04527347691872445
        ]
      }
    },
    {
      "type": "Feature",
      "properties": {
        "norad_id": 39612,
        "name": "EXPRESS-AT1",
        "group": "eutelsat",
        "lat": 0.03156873058102683,
        "lon": 82.42510428051091,
        "alt_km": 35786.2766550718,
        "timestamp": "2025-12-07T20:38:13.748846+00:00",
        "meta_object_name": "EXPRESS-AT1",
        "meta_object_id": "2014-010A",
        "meta_epoch": "2025-12-07T05:20:25.132704",
        "meta_mean_motion": 1.00272011,
        "meta_eccentricity": 5.174e-05,
        "meta_inclination": 0.0179,
        "meta_ra_of_asc_node": 308.4123,
        "meta_arg_of_pericenter": 232.3307,
        "meta_mean_anomaly": 31.613,
        "meta_ephemeris_type": 0,
        "meta_classification_type": "U",
        "meta_norad_cat_id": 39612,
        "meta_element_set_no": 999,
        "meta_rev_at_epoch": 4289,
        "meta_bstar": 0,
        "meta_mean_motion_dot": 8.3e-07,
        "meta_mean_motion_ddot": 0,
        "tle_line1": "1 39612U 14010A   25341.22251311  .00000083  00000+0  00000+0 0  9998",
        "tle_line2": "2 39612   0.0179 308.4123 0000517 232.3307  31.6130  1.00272011 42895"
      },
      "geometry": {
        "type": "Point",
        "coordinates": [
          82.42510428051091,
          0.03156873058102683
        ]
      }
    },
    {
      "type": "Feature",
      "properties": {
        "norad_id": 39613,
        "name": "EXPRESS-AT2",
        "group": "eutelsat",
        "lat": 0.002562116898759052,
        "lon": 166.26335063932495,
        "alt_km": 35790.097435756375,
        "timestamp": "2025-12-07T20:38:13.748858+00:00",
        "meta_object_name": "EXPRESS-AT2",
        "meta_object_id": "2014-010B",
        "meta_epoch": "2025-12-07T04:35:38.605920",
        "meta_mean_motion": 1.00268934,
        "meta_eccentricity": 0.00014037,
        "meta_inclination": 0.0173,
        "meta_ra_of_asc_node": 356.0304,
        "meta_arg_of_pericenter": 292.4604,
        "meta_mean_anomaly": 356.4947,
        "meta_ephemeris_type": 0,
        "meta_classification_type": "U",
        "meta_norad_cat_id": 39613,
        "meta_element_set_no": 999,
        "meta_rev_at_epoch": 4257,
        "meta_bstar": 0,
        "meta_mean_motion_dot": 0,
        "meta_mean_motion_ddot": 0,
        "tle_line1": "1 39613U 14010B   25341.19141905  .00000000  00000+0  00000+0 0  9991",
        "tle_line2": "2 39613   0.0173 356.0304 0001403 292.4604 356.4947  1.00268934 42570"
      },
      "geometry": {
        "type": "Point",
        "coordinates": [
          166.26335063932495,
          0.002562116898759052
        ]
      }
    }
  ]
}